start=new Date('2021-09-09T00:00:00.000Z').valueOf();
sats=[{"APOAPSIS":"548.639","NORAD_CAT_ID":"46672","DECAY_DATE":null,"MEAN_ELEMENT_THEORY":"SGP4","COUNTRY_CODE":"US","ECCENTRICITY":"0.00020270","GP_ID":"184348176","OBJECT_ID":"2020-073C","MEAN_ANOMALY":"271.1445","MEAN_MOTION":"15.06392904","LAUNCH_DATE":"2020-10-18","REV_AT_EPOCH":"4952","CLASSIFICATION_TYPE":"U","SEMIMAJOR_AXIS":"6925.370","TLE_LINE2":"2 46672  53.0546  56.5026 0002027  88.9776 271.1445 15.06392904 49523","SITE":"AFETR","MEAN_MOTION_DOT":"-0.00000796","MEAN_MOTION_DDOT":"0.0000000000000","PERIAPSIS":"545.832","OBJECT_TYPE":"PAYLOAD","EPOCH":"2021-09-08T20:59:51.298656","OBJECT_NAME":"STARLINK-1716","TIME_SYSTEM":"UTC","EPHEMERIS_TYPE":"0","TLE_LINE1":"1 46672U 20073C   21251.87489929 -.00000796  00000-0 -34569-4 0  9999","RCS_SIZE":"LARGE","BSTAR":"-0.00003456900000","FILE":"3111252","ARG_OF_PERICENTER":"88.9776","RA_OF_ASC_NODE":"56.5026","CENTER_NAME":"EARTH","INCLINATION":"53.0546","PERIOD":"95.593","ELEMENT_SET_NO":"999","REF_FRAME":"TEME"},{"EPOCH":"2021-09-08T21:52:14.015712","OBJECT_NAME":"STARLINK-1717","TIME_SYSTEM":"UTC","EPHEMERIS_TYPE":"0","BSTAR":"-0.00004066900000","TLE_LINE1":"1 46673U 20073D   21251.91127333 -.00000887  00000-0 -40669-4 0  9992","RCS_SIZE":"LARGE","FILE":"3111252","ARG_OF_PERICENTER":"98.9209","RA_OF_ASC_NODE":"71.3453","CENTER_NAME":"EARTH","INCLINATION":"53.0555","PERIOD":"95.593","ELEMENT_SET_NO":"999","REF_FRAME":"TEME","APOAPSIS":"548.411","NORAD_CAT_ID":"46673","MEAN_ELEMENT_THEORY":"SGP4","DECAY_DATE":null,"COUNTRY_CODE":"US","ECCENTRICITY":"0.00017030","GP_ID":"184348427","OBJECT_ID":"2020-073D","MEAN_ANOMALY":"261.1973","MEAN_MOTION":"15.06394259","LAUNCH_DATE":"2020-10-18","REV_AT_EPOCH":"4931","CLASSIFICATION_TYPE":"U","SEMIMAJOR_AXIS":"6925.366","TLE_LINE2":"2 46673  53.0555  71.3453 0001703  98.9209 261.1973 15.06394259 49312","MEAN_MOTION_DOT":"-0.00000887","SITE":"AFETR","MEAN_MOTION_DDOT":"0.0000000000000","PERIAPSIS":"546.052","OBJECT_TYPE":"PAYLOAD"},{"MEAN_MOTION_DDOT":"0.0000000000000","SITE":"AFETR","TLE_LINE2":"2 46674  53.0552  56.6872 0001752  87.9857 272.1333 15.06398544 49517","MEAN_MOTION_DOT":"0.00001084","PERIAPSIS":"546.005","OBJECT_TYPE":"PAYLOAD","CLASSIFICATION_TYPE":"U","SEMIMAJOR_AXIS":"6925.353","REV_AT_EPOCH":"4951","MEAN_ANOMALY":"272.1333","MEAN_MOTION":"15.06398544","LAUNCH_DATE":"2020-10-18","DECAY_DATE":null,"MEAN_ELEMENT_THEORY":"SGP4","NORAD_CAT_ID":"46674","APOAPSIS":"548.431","COUNTRY_CODE":"US","GP_ID":"184349178","ECCENTRICITY":"0.00017520","OBJECT_ID":"2020-073E","INCLINATION":"53.0552","ELEMENT_SET_NO":"999","PERIOD":"95.592","REF_FRAME":"TEME","ARG_OF_PERICENTER":"87.9857","FILE":"3111252","RA_OF_ASC_NODE":"56.6872","CENTER_NAME":"EARTH","EPHEMERIS_TYPE":"0","TLE_LINE1":"1 46674U 20073E   21251.83434815  .00001084  00000-0  91675-4 0  9991","BSTAR":"0.00009167500000","RCS_SIZE":"LARGE","OBJECT_NAME":"STARLINK-1718","EPOCH":"2021-09-08T20:01:27.680160","TIME_SYSTEM":"UTC"},{"EPHEMERIS_TYPE":"0","TLE_LINE1":"1 46675U 20073F   21251.89701445 -.00000785  00000-0 -33790-4 0  9997","BSTAR":"-0.00003379000000","RCS_SIZE":"LARGE","OBJECT_NAME":"STARLINK-1720","EPOCH":"2021-09-08T21:31:42.048480","TIME_SYSTEM":"UTC","INCLINATION":"53.0554","ELEMENT_SET_NO":"999","PERIOD":"95.593","REF_FRAME":"TEME","ARG_OF_PERICENTER":"93.8858","FILE":"3111252","CENTER_NAME":"EARTH","RA_OF_ASC_NODE":"56.4079","MEAN_ANOMALY":"266.2330","MEAN_MOTION":"15.06388207","LAUNCH_DATE":"2020-10-18","DECAY_DATE":null,"MEAN_ELEMENT_THEORY":"SGP4","APOAPSIS":"548.455","NORAD_CAT_ID":"46675","COUNTRY_CODE":"US","GP_ID":"184347426","ECCENTRICITY":"0.00017400","OBJECT_ID":"2020-073F","MEAN_MOTION_DDOT":"0.0000000000000","MEAN_MOTION_DOT":"-0.00000785","TLE_LINE2":"2 46675  53.0554  56.4079 0001740  93.8858 266.2330 15.06388207 49528","SITE":"AFETR","PERIAPSIS":"546.045","OBJECT_TYPE":"PAYLOAD","SEMIMAJOR_AXIS":"6925.385","CLASSIFICATION_TYPE":"U","REV_AT_EPOCH":"4952"},{"LAUNCH_DATE":"2020-10-18","MEAN_ANOMALY":"354.1355","MEAN_MOTION":"15.68483005","GP_ID":"184347676","ECCENTRICITY":"0.00052020","OBJECT_ID":"2020-073G","NORAD_CAT_ID":"46676","APOAPSIS":"366.749","MEAN_ELEMENT_THEORY":"SGP4","DECAY_DATE":null,"COUNTRY_CODE":"US","PERIAPSIS":"359.735","OBJECT_TYPE":"PAYLOAD","TLE_LINE2":"2 46676  53.0579   7.7027 0005202   5.9722 354.1355 15.68483005 50200","MEAN_MOTION_DOT":"0.00208556","SITE":"AFETR","MEAN_MOTION_DDOT":"0.0000000000000","REV_AT_EPOCH":"5020","CLASSIFICATION_TYPE":"U","SEMIMAJOR_AXIS":"6741.377","RCS_SIZE":"LARGE","TLE_LINE1":"1 46676U 20073G   21251.79057568  .00208556  00000-0  17696-2 0  9996","BSTAR":"0.00176960000000","EPHEMERIS_TYPE":"0","EPOCH":"2021-09-08T18:58:25.738752","OBJECT_NAME":"STARLINK-1731","TIME_SYSTEM":"UTC","REF_FRAME":"TEME","INCLINATION":"53.0579","PERIOD":"91.808","ELEMENT_SET_NO":"999","CENTER_NAME":"EARTH","RA_OF_ASC_NODE":"7.7027","FILE":"3111252","ARG_OF_PERICENTER":"5.9722"},{"RA_OF_ASC_NODE":"57.0258","CENTER_NAME":"EARTH","FILE":"3111252","ARG_OF_PERICENTER":"107.9073","REF_FRAME":"TEME","INCLINATION":"53.0565","PERIOD":"95.592","ELEMENT_SET_NO":"999","EPOCH":"2021-09-08T18:15:18.163296","OBJECT_NAME":"STARLINK-1766","TIME_SYSTEM":"UTC","TLE_LINE1":"1 46677U 20073H   21251.76062689  .00001260  00000-0  10350-3 0  9998","BSTAR":"0.00010350000000","RCS_SIZE":"LARGE","EPHEMERIS_TYPE":"0","REV_AT_EPOCH":"4950","CLASSIFICATION_TYPE":"U","SEMIMAJOR_AXIS":"6925.349","PERIAPSIS":"546.004","OBJECT_TYPE":"PAYLOAD","MEAN_MOTION_DOT":"0.00001260","TLE_LINE2":"2 46677  53.0565  57.0258 0001748 107.9073 252.2107 15.06399793 49509","SITE":"AFETR","MEAN_MOTION_DDOT":"0.0000000000000","GP_ID":"184348928","ECCENTRICITY":"0.00017480","OBJECT_ID":"2020-073H","APOAPSIS":"548.425","NORAD_CAT_ID":"46677","DECAY_DATE":null,"MEAN_ELEMENT_THEORY":"SGP4","COUNTRY_CODE":"US","LAUNCH_DATE":"2020-10-18","MEAN_ANOMALY":"252.2107","MEAN_MOTION":"15.06399793"},{"ELEMENT_SET_NO":"999","PERIOD":"95.592","INCLINATION":"53.0555","REF_FRAME":"TEME","ARG_OF_PERICENTER":"68.2157","FILE":"3111252","RA_OF_ASC_NODE":"36.6761","CENTER_NAME":"EARTH","EPHEMERIS_TYPE":"0","TLE_LINE1":"1 46679U 20073K   21251.83252241  .00005894  00000-0  41423-3 0  9995","RCS_SIZE":"LARGE","BSTAR":"0.00041423000000","TIME_SYSTEM":"UTC","OBJECT_NAME":"STARLINK-1773","EPOCH":"2021-09-08T19:58:49.936224","MEAN_MOTION_DDOT":"0.0000000000000","TLE_LINE2":"2 46679  53.0555  36.6761 0005162  68.2157 291.9381 15.06398928 49792","MEAN_MOTION_DOT":"0.00005894","SITE":"AFETR","OBJECT_TYPE":"PAYLOAD","PERIAPSIS":"543.642","CLASSIFICATION_TYPE":"U","SEMIMAJOR_AXIS":"6925.352","REV_AT_EPOCH":"4979","MEAN_MOTION":"15.06398928","MEAN_ANOMALY":"291.9381","LAUNCH_DATE":"2020-10-18","COUNTRY_CODE":"US","MEAN_ELEMENT_THEORY":"SGP4","DECAY_DATE":null,"NORAD_CAT_ID":"46679","APOAPSIS":"550.792","OBJECT_ID":"2020-073K","GP_ID":"184348678","ECCENTRICITY":"0.00051620"},{"MEAN_MOTION":"15.06401771","MEAN_ANOMALY":"258.8242","LAUNCH_DATE":"2020-10-18","COUNTRY_CODE":"US","APOAPSIS":"548.584","NORAD_CAT_ID":"46680","DECAY_DATE":null,"MEAN_ELEMENT_THEORY":"SGP4","OBJECT_ID":"2020-073L","GP_ID":"184347927","ECCENTRICITY":"0.00019860","TLE_LINE2":"2 46680  53.0542  71.3779 0001986 101.2970 258.8242 15.06401771 49313","MEAN_MOTION_DOT":"0.00001935","SITE":"AFETR","MEAN_MOTION_DDOT":"0.0000000000000","OBJECT_TYPE":"PAYLOAD","PERIAPSIS":"545.833","REV_AT_EPOCH":"4931","SEMIMAJOR_AXIS":"6925.343","CLASSIFICATION_TYPE":"U","EPHEMERIS_TYPE":"0","BSTAR":"0.00014880000000","TLE_LINE1":"1 46680U 20073L   21251.90116048  .00001935  00000-0  14880-3 0  9998","RCS_SIZE":"LARGE","TIME_SYSTEM":"UTC","EPOCH":"2021-09-08T21:37:40.265472","OBJECT_NAME":"STARLINK-1774","PERIOD":"95.592","ELEMENT_SET_NO":"999","INCLINATION":"53.0542","REF_FRAME":"TEME","FILE":"3111252","ARG_OF_PERICENTER":"101.2970","RA_OF_ASC_NODE":"71.3779","CENTER_NAME":"EARTH"},{"REF_FRAME":"TEME","PERIOD":"95.593","ELEMENT_SET_NO":"999","INCLINATION":"53.0562","CENTER_NAME":"EARTH","RA_OF_ASC_NODE":"71.5122","FILE":"3111252","ARG_OF_PERICENTER":"93.4469","BSTAR":"-0.00004503900000","TLE_LINE1":"1 46681U 20073M   21251.87167383 -.00000952  00000-0 -45039-4 0  9994","RCS_SIZE":"LARGE","EPHEMERIS_TYPE":"0","TIME_SYSTEM":"UTC","EPOCH":"2021-09-08T20:55:12.618912","OBJECT_NAME":"STARLINK-1775","OBJECT_TYPE":"PAYLOAD","PERIAPSIS":"545.924","MEAN_MOTION_DOT":"-0.00000952","TLE_LINE2":"2 46681  53.0562  71.5122 0001909  93.4469 266.6738 15.06389353 49307","SITE":"AFETR","MEAN_MOTION_DDOT":"0.0000000000000","REV_AT_EPOCH":"4930","SEMIMAJOR_AXIS":"6925.381","CLASSIFICATION_TYPE":"U","LAUNCH_DATE":"2020-10-18","MEAN_MOTION":"15.06389353","MEAN_ANOMALY":"266.6738","OBJECT_ID":"2020-073M","ECCENTRICITY":"0.00019090","GP_ID":"184348177","COUNTRY_CODE":"US","APOAPSIS":"548.568","NORAD_CAT_ID":"46681","DECAY_DATE":null,"MEAN_ELEMENT_THEORY":"SGP4"},{"FILE":"3111252","ARG_OF_PERICENTER":"85.9746","RA_OF_ASC_NODE":"71.4078","CENTER_NAME":"EARTH","INCLINATION":"53.0556","PERIOD":"95.592","ELEMENT_SET_NO":"999","REF_FRAME":"TEME","EPOCH":"2021-09-08T21:32:22.056000","OBJECT_NAME":"STARLINK-1776","TIME_SYSTEM":"UTC","EPHEMERIS_TYPE":"0","BSTAR":"-0.00002835400000","TLE_LINE1":"1 46682U 20073N   21251.89747750 -.00000704  00000-0 -28354-4 0  9995","RCS_SIZE":"LARGE","REV_AT_EPOCH":"4931","CLASSIFICATION_TYPE":"U","SEMIMAJOR_AXIS":"6925.362","TLE_LINE2":"2 46682  53.0556  71.4078 0002171  85.9746 274.1491 15.06395657 49311","MEAN_MOTION_DOT":"-0.00000704","SITE":"AFETR","MEAN_MOTION_DDOT":"0.0000000000000","PERIAPSIS":"545.723","OBJECT_TYPE":"PAYLOAD","NORAD_CAT_ID":"46682","APOAPSIS":"548.730","DECAY_DATE":null,"MEAN_ELEMENT_THEORY":"SGP4","COUNTRY_CODE":"US","GP_ID":"184348428","ECCENTRICITY":"0.00021710","OBJECT_ID":"2020-073N","MEAN_ANOMALY":"274.1491","MEAN_MOTION":"15.06395657","LAUNCH_DATE":"2020-10-18"}];
